CCSDS_OMM_VERS = 2.0
CREATION_DATE  = 
ORIGINATOR     = 

OBJECT_NAME    = STARLINK-36840
OBJECT_ID      = 2026-034A
CENTER_NAME    = EARTH
REF_FRAME      = TEME
TIME_SYSTEM    = UTC
MEAN_ELEMENT_THEORY = SGP/SGP4

EPOCH          = 2026-03-20T22:00:01.999584
MEAN_MOTION    = 15.72283004
ECCENTRICITY   = .0000861
INCLINATION    = 53.1592
RA_OF_ASC_NODE = 155.1590
ARG_OF_PERICENTER = 68.5669
MEAN_ANOMALY   = 232.4960

EPHEMERIS_TYPE = 0
CLASSIFICATION_TYPE = U
NORAD_CAT_ID   = 67850
ELEMENT_SET_NO = 999
REV_AT_EPOCH   = 571
BSTAR          = -.16439555E-1
MEAN_MOTION_DOT = -.1963641E-1
MEAN_MOTION_DDOT = 0

CCSDS_OMM_VERS = 2.0
CREATION_DATE  = 
ORIGINATOR     = 

OBJECT_NAME    = STARLINK-36348
OBJECT_ID      = 2026-034B
CENTER_NAME    = EARTH
REF_FRAME      = TEME
TIME_SYSTEM    = UTC
MEAN_ELEMENT_THEORY = SGP/SGP4

EPOCH          = 2026-03-20T22:00:01.999584
MEAN_MOTION    = 15.68050718
ECCENTRICITY   = .00010044
INCLINATION    = 53.1595
RA_OF_ASC_NODE = 155.2288
ARG_OF_PERICENTER = 73.0135
MEAN_ANOMALY   = 193.3834

EPHEMERIS_TYPE = 0
CLASSIFICATION_TYPE = U
NORAD_CAT_ID   = 67851
ELEMENT_SET_NO = 999
REV_AT_EPOCH   = 566
BSTAR          = -.19567431E-1
MEAN_MOTION_DOT = -.1956656E-1
MEAN_MOTION_DDOT = 0

CCSDS_OMM_VERS = 2.0
CREATION_DATE  = 
ORIGINATOR     = 

OBJECT_NAME    = STARLINK-36276
OBJECT_ID      = 2026-034C
CENTER_NAME    = EARTH
REF_FRAME      = TEME
TIME_SYSTEM    = UTC
MEAN_ELEMENT_THEORY = SGP/SGP4

EPOCH          = 2026-03-20T22:00:01.999584
MEAN_MOTION    = 15.66839571
ECCENTRICITY   = .00010121
INCLINATION    = 53.1595
RA_OF_ASC_NODE = 155.2487
ARG_OF_PERICENTER = 67.6849
MEAN_ANOMALY   = 188.9766

EPHEMERIS_TYPE = 0
CLASSIFICATION_TYPE = U
NORAD_CAT_ID   = 67852
ELEMENT_SET_NO = 999
REV_AT_EPOCH   = 566
BSTAR          = -.20576757E-1
MEAN_MOTION_DOT = -.1957518E-1
MEAN_MOTION_DDOT = 0

CCSDS_OMM_VERS = 2.0
CREATION_DATE  = 
ORIGINATOR     = 

OBJECT_NAME    = STARLINK-36785
OBJECT_ID      = 2026-034D
CENTER_NAME    = EARTH
REF_FRAME      = TEME
TIME_SYSTEM    = UTC
MEAN_ELEMENT_THEORY = SGP/SGP4

EPOCH          = 2026-03-20T22:03:41.149728
MEAN_MOTION    = 15.81016369
ECCENTRICITY   = .00031761
INCLINATION    = 53.1574
RA_OF_ASC_NODE = 155.0530
ARG_OF_PERICENTER = 75.6770
MEAN_ANOMALY   = 284.4605

EPHEMERIS_TYPE = 0
CLASSIFICATION_TYPE = U
NORAD_CAT_ID   = 67853
ELEMENT_SET_NO = 999
REV_AT_EPOCH   = 571
BSTAR          = .19541899E-2
MEAN_MOTION_DOT = .406391E-2
MEAN_MOTION_DDOT = 0

CCSDS_OMM_VERS = 2.0
CREATION_DATE  = 
ORIGINATOR     = 

OBJECT_NAME    = STARLINK-36608
OBJECT_ID      = 2026-034E
CENTER_NAME    = EARTH
REF_FRAME      = TEME
TIME_SYSTEM    = UTC
MEAN_ELEMENT_THEORY = SGP/SGP4

EPOCH          = 2026-03-20T14:27:25.117920
MEAN_MOTION    = 15.80966534
ECCENTRICITY   = .0000812
INCLINATION    = 53.1573
RA_OF_ASC_NODE = 156.6317
ARG_OF_PERICENTER = 95.5534
MEAN_ANOMALY   = 264.5581

EPHEMERIS_TYPE = 0
CLASSIFICATION_TYPE = U
NORAD_CAT_ID   = 67854
ELEMENT_SET_NO = 999
REV_AT_EPOCH   = 565
BSTAR          = .13428E-2
MEAN_MOTION_DOT = .274095E-2
MEAN_MOTION_DDOT = 0

CCSDS_OMM_VERS = 2.0
CREATION_DATE  = 
ORIGINATOR     = 

OBJECT_NAME    = STARLINK-36838
OBJECT_ID      = 2026-034F
CENTER_NAME    = EARTH
REF_FRAME      = TEME
TIME_SYSTEM    = UTC
MEAN_ELEMENT_THEORY = SGP/SGP4

EPOCH          = 2026-03-20T22:01:30.411840
MEAN_MOTION    = 15.81036758
ECCENTRICITY   = .00006885
INCLINATION    = 53.1579
RA_OF_ASC_NODE = 155.0426
ARG_OF_PERICENTER = 305.6778
MEAN_ANOMALY   = 54.4181

EPHEMERIS_TYPE = 0
CLASSIFICATION_TYPE = U
NORAD_CAT_ID   = 67855
ELEMENT_SET_NO = 999
REV_AT_EPOCH   = 571
BSTAR          = .14667606E-2
MEAN_MOTION_DOT = .3014E-2
MEAN_MOTION_DDOT = 0

CCSDS_OMM_VERS = 2.0
CREATION_DATE  = 
ORIGINATOR     = 

OBJECT_NAME    = STARLINK-36843
OBJECT_ID      = 2026-034G
CENTER_NAME    = EARTH
REF_FRAME      = TEME
TIME_SYSTEM    = UTC
MEAN_ELEMENT_THEORY = SGP/SGP4

EPOCH          = 2026-03-19T12:36:35.710848
MEAN_MOTION    = 15.80719083
ECCENTRICITY   = .00033435
INCLINATION    = 53.1587
RA_OF_ASC_NODE = 162.0024
ARG_OF_PERICENTER = 124.5278
MEAN_ANOMALY   = 235.6060

EPHEMERIS_TYPE = 0
CLASSIFICATION_TYPE = U
NORAD_CAT_ID   = 67856
ELEMENT_SET_NO = 999
REV_AT_EPOCH   = 549
BSTAR          = -.11055222E-2
MEAN_MOTION_DOT = -.212234E-2
MEAN_MOTION_DDOT = 0

CCSDS_OMM_VERS = 2.0
CREATION_DATE  = 
ORIGINATOR     = 

OBJECT_NAME    = STARLINK-36828
OBJECT_ID      = 2026-034H
CENTER_NAME    = EARTH
REF_FRAME      = TEME
TIME_SYSTEM    = UTC
MEAN_ELEMENT_THEORY = SGP/SGP4

EPOCH          = 2026-03-20T22:00:26.460288
MEAN_MOTION    = 15.81055133
ECCENTRICITY   = .00021258
INCLINATION    = 53.1580
RA_OF_ASC_NODE = 155.0380
ARG_OF_PERICENTER = 64.6698
MEAN_ANOMALY   = 295.4545

EPHEMERIS_TYPE = 0
CLASSIFICATION_TYPE = U
NORAD_CAT_ID   = 67857
ELEMENT_SET_NO = 999
REV_AT_EPOCH   = 571
BSTAR          = .17740899E-2
MEAN_MOTION_DOT = .36785E-2
MEAN_MOTION_DDOT = 0

CCSDS_OMM_VERS = 2.0
CREATION_DATE  = 
ORIGINATOR     = 

OBJECT_NAME    = STARLINK-36837
OBJECT_ID      = 2026-034J
CENTER_NAME    = EARTH
REF_FRAME      = TEME
TIME_SYSTEM    = UTC
MEAN_ELEMENT_THEORY = SGP/SGP4

EPOCH          = 2026-03-20T22:00:01.999584
MEAN_MOTION    = 15.75605032
ECCENTRICITY   = .00007431
INCLINATION    = 53.1589
RA_OF_ASC_NODE = 155.0465
ARG_OF_PERICENTER = 81.0811
MEAN_ANOMALY   = 273.9580

EPHEMERIS_TYPE = 0
CLASSIFICATION_TYPE = U
NORAD_CAT_ID   = 67858
ELEMENT_SET_NO = 999
REV_AT_EPOCH   = 566
BSTAR          = -.14289935E-1
MEAN_MOTION_DOT = -.1931882E-1
MEAN_MOTION_DDOT = 0

CCSDS_OMM_VERS = 2.0
CREATION_DATE  = 
ORIGINATOR     = 

OBJECT_NAME    = STARLINK-36393
OBJECT_ID      = 2026-034K
CENTER_NAME    = EARTH
REF_FRAME      = TEME
TIME_SYSTEM    = UTC
MEAN_ELEMENT_THEORY = SGP/SGP4

EPOCH          = 2026-03-20T21:57:11.896128
MEAN_MOTION    = 15.81029206
ECCENTRICITY   = .0001952
INCLINATION    = 53.1581
RA_OF_ASC_NODE = 155.0220
ARG_OF_PERICENTER = 72.6746
MEAN_ANOMALY   = 287.4490

EPHEMERIS_TYPE = 0
CLASSIFICATION_TYPE = U
NORAD_CAT_ID   = 67859
ELEMENT_SET_NO = 999
REV_AT_EPOCH   = 571
BSTAR          = .14530542E-2
MEAN_MOTION_DOT = .298358E-2
MEAN_MOTION_DDOT = 0

CCSDS_OMM_VERS = 2.0
CREATION_DATE  = 
ORIGINATOR     = 

OBJECT_NAME    = STARLINK-35873
OBJECT_ID      = 2026-034L
CENTER_NAME    = EARTH
REF_FRAME      = TEME
TIME_SYSTEM    = UTC
MEAN_ELEMENT_THEORY = SGP/SGP4

EPOCH          = 2026-03-20T21:56:06.961344
MEAN_MOTION    = 15.80996979
ECCENTRICITY   = .00018687
INCLINATION    = 53.1583
RA_OF_ASC_NODE = 155.0172
ARG_OF_PERICENTER = 75.9549
MEAN_ANOMALY   = 284.1681

EPHEMERIS_TYPE = 0
CLASSIFICATION_TYPE = U
NORAD_CAT_ID   = 67860
ELEMENT_SET_NO = 999
REV_AT_EPOCH   = 574
BSTAR          = .15679808E-2
MEAN_MOTION_DOT = .322441E-2
MEAN_MOTION_DDOT = 0

CCSDS_OMM_VERS = 2.0
CREATION_DATE  = 
ORIGINATOR     = 

OBJECT_NAME    = STARLINK-36325
OBJECT_ID      = 2026-034M
CENTER_NAME    = EARTH
REF_FRAME      = TEME
TIME_SYSTEM    = UTC
MEAN_ELEMENT_THEORY = SGP/SGP4

EPOCH          = 2026-03-20T21:55:02.388576
MEAN_MOTION    = 15.81070987
ECCENTRICITY   = .00020096
INCLINATION    = 53.1583
RA_OF_ASC_NODE = 155.0114
ARG_OF_PERICENTER = 68.9764
MEAN_ANOMALY   = 291.1474

EPHEMERIS_TYPE = 0
CLASSIFICATION_TYPE = U
NORAD_CAT_ID   = 67861
ELEMENT_SET_NO = 999
REV_AT_EPOCH   = 571
BSTAR          = .19064069E-2
MEAN_MOTION_DOT = .396981E-2
MEAN_MOTION_DDOT = 0

